[{"OBJECT_NAME":"STARLINK-31891","OBJECT_ID":"2024-097V","EPOCH":"2026-03-09T13:24:38.093472","MEAN_MOTION":15.27609844,"ECCENTRICITY":9.02e-5,"INCLINATION":43.0032,"RA_OF_ASC_NODE":275.3703,"ARG_OF_PERICENTER":281.3494,"MEAN_ANOMALY":78.7257,"EPHEMERIS_TYPE":0,"CLASSIFICATION_TYPE":"U","NORAD_CAT_ID":59854,"ELEMENT_SET_NO":999,"REV_AT_EPOCH":10189,"BSTAR":-0.00023573713,"MEAN_MOTION_DOT":-6.749e-5,"MEAN_MOTION_DDOT":0},{"OBJECT_NAME":"KUIPER-00266","OBJECT_ID":"2026-030AB","EPOCH":"2026-03-08T21:54:37.698048","MEAN_MOTION":15.30874235,"ECCENTRICITY":0.0022313,"INCLINATION":51.8807,"RA_OF_ASC_NODE":223.5904,"ARG_OF_PERICENTER":72.5291,"MEAN_ANOMALY":287.8129,"EPHEMERIS_TYPE":0,"CLASSIFICATION_TYPE":"U","NORAD_CAT_ID":67789,"ELEMENT_SET_NO":999,"REV_AT_EPOCH":496,"BSTAR":0.00098219753,"MEAN_MOTION_DOT":0.00029701,"MEAN_MOTION_DDOT":0}]
