STARLINK-31891          
1 59854U 24097V   26068.55877423 -.00006749  00000+0 -23574-3 0  9997
2 59854  43.0032 275.3703 0000902 281.3494  78.7257 15.27609844101895
KUIPER-00266            
1 67789U 26030AB  26067.91293632  .00029701  00000+0  98220-3 0  9996
2 67789  51.8807 223.5904 0022313  72.5291 287.8129 15.30874235  4964
